[{"OBJECT_NAME":"STARLINK-5286","OBJECT_ID":"2023-010AB","EPOCH":"2026-03-09T22:07:20.643744","MEAN_MOTION":14.98328114,"ECCENTRICITY":0.00029197,"INCLINATION":70.0004,"RA_OF_ASC_NODE":43.7492,"ARG_OF_PERICENTER":268.8951,"MEAN_ANOMALY":91.1874,"EPHEMERIS_TYPE":0,"CLASSIFICATION_TYPE":"U","NORAD_CAT_ID":55294,"ELEMENT_SET_NO":999,"REV_AT_EPOCH":17281,"BSTAR":8.547099e-6,"MEAN_MOTION_DOT":9.0e-8,"MEAN_MOTION_DDOT":0},{"OBJECT_NAME":"COSMOS 2242","OBJECT_ID":"1993-024A","EPOCH":"2026-03-09T23:17:07.942848","MEAN_MOTION":14.96550444,"ECCENTRICITY":0.00151707,"INCLINATION":82.5157,"RA_OF_ASC_NODE":266.4481,"ARG_OF_PERICENTER":307.8411,"MEAN_ANOMALY":52.1437,"EPHEMERIS_TYPE":0,"CLASSIFICATION_TYPE":"U","NORAD_CAT_ID":22626,"ELEMENT_SET_NO":999,"REV_AT_EPOCH":78043,"BSTAR":0.00021609887,"MEAN_MOTION_DOT":2.488e-5,"MEAN_MOTION_DDOT":0}]
